{"type": "FeatureCollection", "features": [ {"type": "Feature", "properties": {"norad_id": 34911, "name": "COSMOS 2251 DEB", "group": "cosmos-2251-debris", "lat": 30.5204009418715, "lon": -129.22058623005938, "alt_km": 653.5443350330161, "timestamp": "2025-12-25T03:55:56.762776+00:00", "meta": {"OBJECT_NAME": "COSMOS 2251 DEB", "OBJECT_ID": "1993-036ADG", "EPOCH": "2025-12-24T02:09:31.972032", "MEAN_MOTION": 14.59387905, "ECCENTRICITY": 0.00841327, "INCLINATION": 74.04, "RA_OF_ASC_NODE": 223.1127, "ARG_OF_PERICENTER": 345.7006, "MEAN_ANOMALY": 165.8347, "EPHEMERIS_TYPE": 0, "CLASSIFICATION_TYPE": "U", "NORAD_CAT_ID": 34911, "ELEMENT_SET_NO": 999, "REV_AT_EPOCH": 88752, "BSTAR": 0.0001069938, "MEAN_MOTION_DOT": 4.99e-06, "MEAN_MOTION_DDOT": 0}, "tle": {"line1": "1 34911U 93036ADG 25358.08995338  .00000499  00000+0  10699-3 0  9996", "line2": "2 34911  74.0400 223.1127 0084132 345.7006 165.8347 14.59387905887521"}}, "geometry": {"type": "Point", "coordinates": [-129.22058623005938, 30.5204009418715]}}, {"type": "Feature", "properties": {"norad_id": 34913, "name": "COSMOS 2251 DEB", "group": "cosmos-2251-debris", "lat": 8.235215339007517, "lon": -97.89324027640569, "alt_km": 762.8712639492151, "timestamp": "2025-12-25T03:55:56.762786+00:00", "meta": {"OBJECT_NAME": "COSMOS 2251 DEB", "OBJECT_ID": "1993-036ADJ", "EPOCH": "2025-12-23T10:36:37.078848", "MEAN_MOTION": 14.34640565, "ECCENTRICITY": 0.00207883, "INCLINATION": 74.0284, "RA_OF_ASC_NODE": 262.8852, "ARG_OF_PERICENTER": 9.9036, "MEAN_ANOMALY": 109.9742, "EPHEMERIS_TYPE": 0, "CLASSIFICATION_TYPE": "U", "NORAD_CAT_ID": 34913, "ELEMENT_SET_NO": 999, "REV_AT_EPOCH": 65341, "BSTAR": 5.2055056e-05, "MEAN_MOTION_DOT": 1.21e-06, "MEAN_MOTION_DDOT": 0}, "tle": {"line1": "1 34913U 93036ADJ 25357.44209582  .00000121  00000+0  52055-4 0  9991", "line2": "2 34913  74.0284 262.8852 0020788   9.9036 109.9742 14.34640565653411"}}, "geometry": {"type": "Point", "coordinates": [-97.89324027640569, 8.235215339007517]}}, {"type": "Feature", "properties": {"norad_id": 34918, "name": "COSMOS 2251 DEB", "group": "cosmos-2251-debris", "lat": -73.68035274383087, "lon": -172.8186851392969, "alt_km": 672.8422642891092, "timestamp": "2025-12-25T03:55:56.762796+00:00", "meta": {"OBJECT_NAME": "COSMOS 2251 DEB", "OBJECT_ID": "1993-036ADP", "EPOCH": "2025-12-24T02:08:41.542080", "MEAN_MOTION": 14.61378156, "ECCENTRICITY": 0.00328762, "INCLINATION": 74.0715, "RA_OF_ASC_NODE": 291.971, "ARG_OF_PERICENTER": 257.5007, "MEAN_ANOMALY": 118.3571, "EPHEMERIS_TYPE": 0, "CLASSIFICATION_TYPE": "U", "NORAD_CAT_ID": 34918, "ELEMENT_SET_NO": 999, "REV_AT_EPOCH": 65502, "BSTAR": 0.0016613366, "MEAN_MOTION_DOT": 8.26e-05, "MEAN_MOTION_DDOT": 0}, "tle": {"line1": "1 34918U 93036ADP 25358.08936970  .00008260  00000+0  16613-2 0  9995", "line2": "2 34918  74.0715 291.9710 0032876 257.5007 118.3571 14.61378156655028"}}, "geometry": {"type": "Point", "coordinates": [-172.8186851392969, -73.68035274383087]}}, {"type": "Feature", "properties": {"norad_id": 34924, "name": "COSMOS 2251 DEB", "group": "cosmos-2251-debris", "lat": -27.601800338379356, "lon": -105.65135778652768, "alt_km": 679.988401458022, "timestamp": "2025-12-25T03:55:56.762807+00:00", "meta": {"OBJECT_NAME": "COSMOS 2251 DEB", "OBJECT_ID": "1993-036ADV", "EPOCH": "2025-12-23T21:54:48.053952", "MEAN_MOTION": 14.60122119, "ECCENTRICITY": 0.0053434, "INCLINATION": 74.0406, "RA_OF_ASC_NODE": 68.1296, "ARG_OF_PERICENTER": 149.9292, "MEAN_ANOMALY": 326.1896, "EPHEMERIS_TYPE": 0, "CLASSIFICATION_TYPE": "U", "NORAD_CAT_ID": 34924, "ELEMENT_SET_NO": 999, "REV_AT_EPOCH": 87886, "BSTAR": 0.00083112, "MEAN_MOTION_DOT": 4.052e-05, "MEAN_MOTION_DDOT": 0}, "tle": {"line1": "1 34924U 93036ADV 25357.91305618  .00004052  00000+0  83112-3 0  9996", "line2": "2 34924  74.0406  68.1296 0053434 149.9292 326.1896 14.60122119878861"}}, "geometry": {"type": "Point", "coordinates": [-105.65135778652768, -27.601800338379356]}}, {"type": "Feature", "properties": {"norad_id": 34944, "name": "COSMOS 2251 DEB", "group": "cosmos-2251-debris", "lat": 59.62143806859975, "lon": -120.53068011066188, "alt_km": 681.5950171498953, "timestamp": "2025-12-25T03:55:56.762817+00:00", "meta": {"OBJECT_NAME": "COSMOS 2251 DEB", "OBJECT_ID": "1993-036ADX", "EPOCH": "2025-12-24T00:28:45.299136", "MEAN_MOTION": 14.14205718, "ECCENTRICITY": 0.02202834, "INCLINATION": 73.747, "RA_OF_ASC_NODE": 211.6884, "ARG_OF_PERICENTER": 57.2744, "MEAN_ANOMALY": 304.942, "EPHEMERIS_TYPE": 0, "CLASSIFICATION_TYPE": "U", "NORAD_CAT_ID": 34944, "ELEMENT_SET_NO": 999, "REV_AT_EPOCH": 64242, "BSTAR": 0.00030475781, "MEAN_MOTION_DOT": 7.07e-06, "MEAN_MOTION_DDOT": 0}, "tle": {"line1": "1 34944U 93036ADX 25358.01996874  .00000707  00000+0  30476-3 0  9998", "line2": "2 34944  73.7470 211.6884 0220283  57.2744 304.9420 14.14205718642423"}}, "geometry": {"type": "Point", "coordinates": [-120.53068011066188, 59.62143806859975]}}, {"type": "Feature", "properties": {"norad_id": 34946, "name": "COSMOS 2251 DEB", "group": "cosmos-2251-debris", "lat": 38.11361185440726, "lon": 125.32391973059406, "alt_km": 660.4216855771901, "timestamp": "2025-12-25T03:55:56.762827+00:00", "meta": {"OBJECT_NAME": "COSMOS 2251 DEB", "OBJECT_ID": "1993-036ADZ", "EPOCH": "2025-12-22T14:32:14.157024", "MEAN_MOTION": 14.62044182, "ECCENTRICITY": 0.00485038, "INCLINATION": 74.0239, "RA_OF_ASC_NODE": 323.2107, "ARG_OF_PERICENTER": 97.3579, "MEAN_ANOMALY": 263.3103, "EPHEMERIS_TYPE": 0, "CLASSIFICATION_TYPE": "U", "NORAD_CAT_ID": 34946, "ELEMENT_SET_NO": 999, "REV_AT_EPOCH": 88353, "BSTAR": 0.00053383233, "MEAN_MOTION_DOT": 2.695e-05, "MEAN_MOTION_DDOT": 0}, "tle": {"line1": "1 34946U 93036ADZ 25356.60571941  .00002695  00000+0  53383-3 0  9997", "line2": "2 34946  74.0239 323.2107 0048503  97.3579 263.3103 14.62044182883538"}}, "geometry": {"type": "Point", "coordinates": [125.32391973059406, 38.11361185440726]}}, {"type": "Feature", "properties": {"norad_id": 34949, "name": "COSMOS 2251 DEB", "group": "cosmos-2251-debris", "lat": -32.5401751675106, "lon": -84.07680838805781, "alt_km": 599.2563432284178, "timestamp": "2025-12-25T03:55:56.762838+00:00", "meta": {"OBJECT_NAME": "COSMOS 2251 DEB", "OBJECT_ID": "1993-036AEC", "EPOCH": "2025-12-23T15:07:36.737184", "MEAN_MOTION": 14.74070674, "ECCENTRICITY": 0.00800682, "INCLINATION": 74.0188, "RA_OF_ASC_NODE": 88.3818, "ARG_OF_PERICENTER": 231.4252, "MEAN_ANOMALY": 127.973, "EPHEMERIS_TYPE": 0, "CLASSIFICATION_TYPE": "U", "NORAD_CAT_ID": 34949, "ELEMENT_SET_NO": 999, "REV_AT_EPOCH": 88522, "BSTAR": 0.00052093232, "MEAN_MOTION_DOT": 3.576e-05, "MEAN_MOTION_DDOT": 0}, "tle": {"line1": "1 34949U 93036AEC 25357.63028631  .00003576  00000+0  52093-3 0  9993", "line2": "2 34949  74.0188  88.3818 0080068 231.4252 127.9730 14.74070674885220"}}, "geometry": {"type": "Point", "coordinates": [-84.07680838805781, -32.5401751675106]}}, {"type": "Feature", "properties": {"norad_id": 34953, "name": "COSMOS 2251 DEB", "group": "cosmos-2251-debris", "lat": -34.32849978789596, "lon": -7.7102022182005845, "alt_km": 633.257849405456, "timestamp": "2025-12-25T03:55:56.762848+00:00", "meta": {"OBJECT_NAME": "COSMOS 2251 DEB", "OBJECT_ID": "1993-036AEG", "EPOCH": "2025-12-24T19:05:28.245984", "MEAN_MOTION": 14.69063461, "ECCENTRICITY": 0.0058806, "INCLINATION": 74.093, "RA_OF_ASC_NODE": 4.23, "ARG_OF_PERICENTER": 352.8678, "MEAN_ANOMALY": 184.1969, "EPHEMERIS_TYPE": 0, "CLASSIFICATION_TYPE": "U", "NORAD_CAT_ID": 34953, "ELEMENT_SET_NO": 999, "REV_AT_EPOCH": 88305, "BSTAR": 0.00092055, "MEAN_MOTION_DOT": 5.521e-05, "MEAN_MOTION_DDOT": 0}, "tle": {"line1": "1 34953U 93036AEG 25358.79546581  .00005521  00000+0  92055-3 0  9999", "line2": "2 34953  74.0930   4.2300 0058806 352.8678 184.1969 14.69063461883056"}}, "geometry": {"type": "Point", "coordinates": [-7.7102022182005845, -34.32849978789596]}}, {"type": "Feature", "properties": {"norad_id": 34955, "name": "COSMOS 2251 DEB", "group": "cosmos-2251-debris", "lat": 66.04050817861594, "lon": -98.66561631010092, "alt_km": 601.5715989150203, "timestamp": "2025-12-25T03:55:56.762859+00:00", "meta": {"OBJECT_NAME": "COSMOS 2251 DEB", "OBJECT_ID": "1993-036AEJ", "EPOCH": "2025-12-20T00:24:58.893120", "MEAN_MOTION": 15.00658938, "ECCENTRICITY": 0.00779123, "INCLINATION": 74.0366, "RA_OF_ASC_NODE": 231.6989, "ARG_OF_PERICENTER": 299.5962, "MEAN_ANOMALY": 59.7477, "EPHEMERIS_TYPE": 0, "CLASSIFICATION_TYPE": "U", "NORAD_CAT_ID": 34955, "ELEMENT_SET_NO": 999, "REV_AT_EPOCH": 90143, "BSTAR": 0.00046776562, "MEAN_MOTION_DOT": 6.274e-05, "MEAN_MOTION_DDOT": 0}, "tle": {"line1": "1 34955U 93036AEJ 25354.01734830  .00006274  00000+0  46777-3 0  9994", "line2": "2 34955  74.0366 231.6989 0077912 299.5962  59.7477 15.00658938901431"}}, "geometry": {"type": "Point", "coordinates": [-98.66561631010092, 66.04050817861594]}}, {"type": "Feature", "properties": {"norad_id": 34962, "name": "COSMOS 2251 DEB", "group": "cosmos-2251-debris", "lat": -34.52781247026631, "lon": 158.7926443953937, "alt_km": 732.8433950630442, "timestamp": "2025-12-25T03:55:56.762869+00:00", "meta": {"OBJECT_NAME": "COSMOS 2251 DEB", "OBJECT_ID": "1993-036AER", "EPOCH": "2025-12-22T13:01:35.530176", "MEAN_MOTION": 14.46544161, "ECCENTRICITY": 0.00189039, "INCLINATION": 74.0281, "RA_OF_ASC_NODE": 175.0517, "ARG_OF_PERICENTER": 287.2321, "MEAN_ANOMALY": 72.6768, "EPHEMERIS_TYPE": 0, "CLASSIFICATION_TYPE": "U", "NORAD_CAT_ID": 34962, "ELEMENT_SET_NO": 999, "REV_AT_EPOCH": 87720, "BSTAR": 0.00036229259, "MEAN_MOTION_DOT": 1.281e-05, "MEAN_MOTION_DDOT": 0}, "tle": {"line1": "1 34962U 93036AER 25356.54277234  .00001281  00000+0  36229-3 0  9996", "line2": "2 34962  74.0281 175.0517 0018903 287.2321  72.6768 14.46544161877206"}}, "geometry": {"type": "Point", "coordinates": [158.7926443953937, -34.52781247026631]}}]}